NORAD_CAT_ID,OBJECT_NAME,OBJECT_TYPE,EPOCH,MEAN_MOTION,ECCENTRICITY,INCLINATION,RA_OF_ASC_NODE,ARG_OF_PERICENTER,MEAN_ANOMALY,BSTAR,MEAN_MOTION_DOT,MEAN_MOTION_DDOT,TLE_LINE0,TLE_LINE1,TLE_LINE2,SEMIMAJOR_AXIS,PERIOD,APOGEE,PERIGEE,DECAYED
52629.0,STARLINK-4022,PAYLOAD,2024-01-22 13:54:47,15.08842038,0.0001552,53.2186,157.6672,107.8214,252.2948,-4.6683e-06,-3.62e-06,0.0,0 STARLINK-4022,1 52629U 22052AH  24022.57971891 -.00000362  00000-0 -46683-5 0  9997,2 52629  53.2186 157.6672 0001552 107.8214 252.2948 15.08842038 93677,6917.874,95.437,540.813,538.666,0.0
52629.0,STARLINK-4022,PAYLOAD,2024-01-23 13:45:34,15.08843349,0.000181,53.2198,153.2195,111.3184,248.8002,6.0378e-05,6.73e-06,0.0,0 STARLINK-4022,1 52629U 22052AH  24023.57331655  .00000673  00000-0  60378-4 0  9995,2 52629  53.2198 153.2195 0001810 111.3184 248.8002 15.08843349 94203,6917.87,95.437,540.987,538.483,0.0
52629.0,STARLINK-4022,PAYLOAD,2024-01-24 12:00:59,15.08827289,0.0002299,53.219,149.046,130.3412,229.7781,-3.9588e-05,-9.18e-06,0.0,0 STARLINK-4022,1 52629U 22052AH  24024.50069253 -.00000918  00000-0 -39588-4 0  9994,2 52629  53.2190 149.0460 0002299 130.3412 229.7781 15.08827289 94342,6917.919,95.438,541.375,538.194,0.0
52629.0,STARLINK-4022,PAYLOAD,2024-01-24 13:36:23,15.08826908,0.0002153,53.2182,148.7443,127.5795,232.5393,-4.2567e-05,-9.65e-06,0.0,0 STARLINK-4022,1 52629U 22052AH  24024.56693330 -.00000965  00000-0 -42567-4 0  9992,2 52629  53.2182 148.7443 0002153 127.5795 232.5393 15.08826908 93977,6917.92,95.438,541.275,538.296,0.0
52629.0,STARLINK-4022,PAYLOAD,2024-01-24 15:11:46,15.08827489,0.0001534,53.2174,148.448,110.5986,249.5171,-5.4086e-05,-1.148e-05,0.0,0 STARLINK-4022,1 52629U 22052AH  24024.63317494 -.00001148  00000-0 -54086-4 0  9997,2 52629  53.2174 148.4480 0001534 110.5986 249.5171 15.08827489 93980,6917.919,95.438,540.845,538.722,0.0
52629.0,STARLINK-4022,PAYLOAD,2024-01-25 11:51:46,15.08842486,0.0001228,53.2167,144.5829,76.9468,283.1661,1.4561e-05,-5.6e-07,0.0,0 STARLINK-4022,1 52629U 22052AH  24025.49428645 -.00000056  00000-0  14561-4 0  9993,2 52629  53.2167 144.5829 0001228  76.9468 283.1661 15.08842486 94495,6917.873,95.437,540.587,538.888,0.0
52629.0,STARLINK-4022,PAYLOAD,2024-01-25 13:27:08,15.0885443,0.0001303,53.2169,144.2816,93.8907,266.2234,0.0001064,1.406e-05,0.0,0 STARLINK-4022,1 52629U 22052AH  24025.56051582  .00001406  00000-0  10640-3 0  9995,2 52629  53.2169 144.2816 0001303  93.8907 266.2234 15.08854430 94120,6917.836,95.437,540.603,538.8,0.0
52629.0,STARLINK-4022,PAYLOAD,2024-01-26 11:42:33,15.08840041,0.0001135,53.2159,140.1235,87.0516,273.0606,0.0001471,2.054e-05,0.0,0 STARLINK-4022,1 52629U 22052AH  24026.48788707  .00002054  00000-0  14710-3 0  9995,2 52629  53.2159 140.1235 0001135  87.0516 273.0606 15.08840041 94642,6917.88,95.438,540.53,538.96,0.0
52629.0,STARLINK-4022,PAYLOAD,2024-01-26 14:53:19,15.0884894,0.0001483,53.2167,139.524,109.1187,250.9966,0.00016301,2.308e-05,0.0,0 STARLINK-4022,1 52629U 22052AH  24026.62035902  .00002308  00000-0  16301-3 0  9993,2 52629  53.2167 139.5240 0001483 109.1187 250.9966 15.08848940 94284,6917.853,95.437,540.744,538.692,0.0
52629.0,STARLINK-4022,PAYLOAD,2024-01-26 16:28:42,15.08850686,0.0001352,53.2174,139.2273,88.1971,271.9176,0.00017092,2.434e-05,0.0,0 STARLINK-4022,1 52629U 22052AH  24026.68659899  .00002434  00000-0  17092-3 0  9994,2 52629  53.2174 139.2273 0001352  88.1971 271.9176 15.08850686 94676,6917.848,95.437,540.648,538.777,0.0
52629.0,STARLINK-4022,PAYLOAD,2024-01-27 11:33:20,15.08843162,0.0001365,53.2157,135.6639,111.1541,248.9597,-2.0932e-05,-6.21e-06,0.0,0 STARLINK-4022,1 52629U 22052AH  24027.48148885 -.00000621  00000-0 -20932-4 0  9997,2 52629  53.2157 135.6639 0001365 111.1541 248.9597 15.08843162 94792,6917.871,95.437,540.68,538.791,0.0
52629.0,STARLINK-4022,PAYLOAD,2024-01-27 14:44:06,15.08847633,0.0001594,53.2171,135.0644,73.7769,286.3399,-4.1434e-05,-9.48e-06,0.0,0 STARLINK-4022,1 52629U 22052AH  24027.61396756 -.00000948  00000-0 -41434-4 0  9996,2 52629  53.2171 135.0644 0001594  73.7769 286.3399 15.08847633 94431,6917.857,95.437,540.825,538.619,0.0
52629.0,STARLINK-4022,PAYLOAD,2024-01-28 06:37:58,15.08843436,0.0001852,53.2173,132.0989,70.2679,289.8513,-6.445e-05,-1.314e-05,0.0,0 STARLINK-4022,1 52629U 22052AH  24028.27637342 -.00001314  00000-0 -64450-4 0  9999,2 52629  53.2173 132.0989 0001852  70.2679 289.8513 15.08843436 94917,6917.87,95.437,541.016,538.454,0.0
52629.0,STARLINK-4022,PAYLOAD,2024-01-28 12:59:31,15.08839939,0.0001851,53.2174,130.9065,70.8606,289.2587,-8.8007e-05,-1.689e-05,0.0,0 STARLINK-4022,1 52629U 22052AH  24028.54133637 -.00001689  00000-0 -88007-4 0  9996,2 52629  53.2174 130.9065 0001851  70.8606 289.2587 15.08839939 94575,6917.881,95.438,541.026,538.465,0.0
52629.0,STARLINK-4022,PAYLOAD,2024-01-29 11:14:54,15.08855856,0.0001564,53.2179,126.7419,83.6818,276.4352,5.2763e-05,5.52e-06,0.0,0 STARLINK-4022,1 52629U 22052AH  24029.46868067  .00000552  00000-0  52763-4 0  9996,2 52629  53.2179 126.7419 0001564  83.6818 276.4352 15.08855856 95096,6917.832,95.437,540.779,538.615,0.0
52629.0,STARLINK-4022,PAYLOAD,2024-01-29 16:01:03,15.08853649,0.0001605,53.2154,125.8474,92.7074,267.4102,0.00017911,2.565e-05,0.0,0 STARLINK-4022,1 52629U 22052AH  24029.66739618  .00002565  00000-0  17911-3 0  9998,2 52629  53.2154 125.8474 0001605  92.7074 267.4102 15.08853649 94743,6917.839,95.437,540.814,538.593,0.0
52629.0,STARLINK-4022,PAYLOAD,2024-01-30 11:05:42,15.08835133,0.0001554,53.2175,122.281,85.1788,274.9382,2.0965e-05,4.6e-07,0.0,0 STARLINK-4022,1 52629U 22052AH  24030.46229473  .00000046  00000-0  20965-4 0  9997,2 52629  53.2175 122.2810 0001554  85.1788 274.9382 15.08835133 95249,6917.895,95.438,540.835,538.685,0.0
52629.0,STARLINK-4022,PAYLOAD,2024-01-30 12:41:05,15.08836511,0.000144,53.2173,121.9831,89.8921,270.2236,2.7742e-05,1.54e-06,0.0,0 STARLINK-4022,1 52629U 22052AH  24030.52853353  .00000154  00000-0  27742-4 0  9994,2 52629  53.2173 121.9831 0001440  89.8921 270.2236 15.08836511 94876,6917.891,95.438,540.752,538.76,0.0
52629.0,STARLINK-4022,PAYLOAD,2024-01-31 10:56:28,15.08845707,0.0001531,53.217,117.8182,96.4292,263.6875,-4.7555e-05,-1.045e-05,0.0,0 STARLINK-4022,1 52629U 22052AH  24031.45588958 -.00001045  00000-0 -47555-4 0  9999,2 52629  53.2170 117.8182 0001531  96.4292 263.6875 15.08845707 95392,6917.863,95.437,540.787,538.669,0.0
52629.0,STARLINK-4022,PAYLOAD,2024-01-31 15:42:38,15.08845887,0.0001723,53.2173,116.926,109.5353,250.5826,-2.3781e-05,-6.67e-06,0.0,0 STARLINK-4022,1 52629U 22052AH  24031.65460767 -.00000667  00000-0 -23781-4 0  9992,2 52629  53.2173 116.9260 0001723 109.5353 250.5826 15.08845887 95041,6917.862,95.437,540.919,538.535,0.0
52629.0,STARLINK-4022,PAYLOAD,2024-02-01 10:47:16,15.08832822,0.0001658,53.2173,113.358,110.3076,249.8094,6.5067e-05,7.47e-06,0.0,0 STARLINK-4022,1 52629U 22052AH  24032.44949602  .00000747  00000-0  65067-4 0  9990,2 52629  53.2173 113.3580 0001658 110.3076 249.8094 15.08832822 95544,6917.902,95.438,540.914,538.62,0.0
52629.0,STARLINK-4022,PAYLOAD,2024-02-01 13:58:02,15.08834134,0.0001627,53.2171,112.7628,109.4376,250.6792,7.114e-05,8.44e-06,0.0,0 STARLINK-4022,1 52629U 22052AH  24032.58197574  .00000844  00000-0  71140-4 0  9995,2 52629  53.2171 112.7628 0001627 109.4376 250.6792 15.08834134 95189,6917.898,95.438,540.889,538.638,0.0
52629.0,STARLINK-4022,PAYLOAD,2024-02-02 10:38:03,15.08840868,0.0001592,53.217,108.8973,109.9282,250.1881,0.00010237,1.342e-05,0.0,0 STARLINK-4022,1 52629U 22052AH  24033.44309194  .00001342  00000-0  10237-3 0  9997,2 52629  53.2170 108.8973 0001592 109.9282 250.1881 15.08840868 95690,6917.878,95.437,540.844,538.641,0.0
52629.0,STARLINK-4022,PAYLOAD,2024-02-03 12:04:13,15.08840722,0.0001349,53.2174,104.14,83.2849,276.8296,4.7523e-05,4.69e-06,0.0,0 STARLINK-4022,1 52629U 22052AH  24034.50293657  .00000469  00000-0  47523-4 0  9999,2 52629  53.2174 104.1400 0001349  83.2849 276.8296 15.08840722 95853,6917.878,95.438,540.676,538.81,0.0
52629.0,STARLINK-4022,PAYLOAD,2024-02-03 13:39:36,15.08841791,0.0001362,53.2174,103.8421,82.8164,277.2983,5.7413e-05,6.26e-06,0.0,0 STARLINK-4022,1 52629U 22052AH  24034.56917552  .00000626  00000-0  57413-4 0  9996,2 52629  53.2174 103.8421 0001362  82.8164 277.2983 15.08841791 95486,6917.875,95.437,540.682,538.798,0.0
52629.0,STARLINK-4022,PAYLOAD,2024-02-04 11:55:00,15.08848518,0.0001492,53.217,99.6811,77.7864,282.3295,0.00013276,1.826e-05,0.0,0 STARLINK-4022,1 52629U 22052AH  24035.49652923  .00001826  00000-0  13276-3 0  9998,2 52629  53.2170  99.6811 0001492  77.7864 282.3295 15.08848518 96007,6917.854,95.437,540.751,538.687,0.0
52629.0,STARLINK-4022,PAYLOAD,2024-02-05 03:48:52,15.08840792,0.0001441,53.2168,96.7076,82.3123,277.8033,4.7386e-05,4.66e-06,0.0,0 STARLINK-4022,1 52629U 22052AH  24036.15893531  .00000466  00000-0  47386-4 0  9993,2 52629  53.2168  96.7076 0001441  82.3123 277.8033 15.08840792 96105,6917.878,95.438,540.74,538.746,0.0
52629.0,STARLINK-4022,PAYLOAD,2024-02-05 10:10:24,15.08841487,0.0001372,53.2166,95.5172,88.1541,271.9608,4.9167e-05,4.95e-06,0.0,0 STARLINK-4022,1 52629U 22052AH  24036.42389461  .00000495  00000-0  49167-4 0  9996,2 52629  53.2166  95.5172 0001372  88.1541 271.9608 15.08841487 95764,6917.876,95.437,540.69,538.792,0.0
52629.0,STARLINK-4022,PAYLOAD,2024-02-06 10:01:11,15.08849072,0.0001431,53.2158,91.056,87.9812,272.1343,3.1909e-05,2.2e-06,0.0,0 STARLINK-4022,1 52629U 22052AH  24037.41748977  .00000220  00000-0  31909-4 0  9998,2 52629  53.2158  91.0560 0001431  87.9812 272.1343 15.08849072 96297,6917.853,95.437,540.708,538.728,0.0
52629.0,STARLINK-4022,PAYLOAD,2024-02-07 09:51:58,15.08839505,0.0001424,53.2165,86.5951,94.127,265.9885,5.0077e-05,5.09e-06,0.0,0 STARLINK-4022,1 52629U 22052AH  24038.41109594  .00000509  00000-0  50077-4 0  9992,2 52629  53.2165  86.5951 0001424  94.1270 265.9885 15.08839505 96446,6917.882,95.438,540.732,538.762,0.0
